ONEWEB-0118             
1 47264U 20100G   23353.52565313 -.00000339  00000+0 -97838-3 0  9996
2 47264  87.8998 171.7857 0001931  76.5776 283.5567 13.12441066145275
ONEWEB-0119             
1 47265U 20100H   23353.55424989  .00000223  00000+0  58389-3 0  9991
2 47265  87.8997 171.8182 0001526  97.1468 262.9834 13.12444716145255
ONEWEB-0120             
1 47266U 20100J   23353.50738902  .00000153  00000+0  39078-3 0  9996
2 47266  87.9000 171.8174 0001660  86.7138 273.4180 13.12445258145275
ONEWEB-0121             
1 47267U 20100K   23353.56537678  .00000438  00000+0  11821-2 0  9991
2 47267  87.8994 171.8030 0001405  99.3730 260.7558 13.12441364145196
ONEWEB-0122             
1 47268U 20100L   23353.56047189  .00000373  00000+0  10024-2 0  9997
2 47268  87.8993 171.8083 0001612  93.6867 266.4445 13.12442416145100
ONEWEB-0123             
1 47269U 20100M   23353.55584309  .00000199  00000+0  51799-3 0  9998
2 47269  87.8997 171.8164 0001541  91.1630 268.9675 13.12442474145248
ONEWEB-0124             
1 47270U 20100N   23353.54473576 -.00000072  00000+0 -23439-3 0  9994
2 47270  87.8996 171.8143 0001411 107.5277 252.6005 13.12441736145125
ONEWEB-0125             
1 47271U 20100P   23353.59555539 -.00000115  00000+0 -35620-3 0  9993
2 47271  87.9001 171.7616 0001290  75.4922 284.6350 13.12441299145192
